OBJECT_NAME,OBJECT_ID,EPOCH,MEAN_MOTION,ECCENTRICITY,INCLINATION,RA_OF_ASC_NODE,ARG_OF_PERICENTER,MEAN_ANOMALY,EPHEMERIS_TYPE,CLASSIFICATION_TYPE,NORAD_CAT_ID,ELEMENT_SET_NO,REV_AT_EPOCH,BSTAR,MEAN_MOTION_DOT,MEAN_MOTION_DDOT
METEOSAT-10 (MSG-3),2012-035B,2026-07-16T18:27:20.253024,1.00271271,.0001221,4.7400,60.8739,16.6665,133.9327,0,U,38552,999,5115,0,-.19E-6,0
SES-5,2012-036A,2026-07-17T02:29:38.592096,1.00271759,.0001966,0.0442,323.1939,153.0082,221.1059,0,U,38652,999,4475,0,.23E-6,0
EXACTVIEW-1 (ADS-1B),2012-039C,2026-07-16T20:55:17.872032,14.24992448,.0011957,98.9807,315.9364,87.2353,273.0194,0,U,38709,999,72693,.33114E-4,.31E-6,0
MKA-PN 1,2012-039E,2026-07-16T19:25:30.418176,14.25437023,.0012521,98.9748,315.5215,84.4717,275.7889,0,U,38711,999,72706,.37803E-4,.43E-6,0
COSMOS 2481,2012-041A,2026-07-17T04:07:41.720160,12.42435351,.0019256,82.4725,56.5285,13.5322,346.6270,0,U,38733,999,63347,.54904E-3,.85E-6,0
GONETS-M 3,2012-041B,2026-07-17T04:58:41.718720,12.44903638,.0016868,82.4726,46.0024,359.3274,0.7781,0,U,38734,999,63440,-.19575E-3,-.18E-6,0
GONETS-M 4,2012-041D,2026-07-17T04:31:47.218080,12.43905292,.0025329,82.4769,52.0609,349.9669,10.0902,0,U,38736,999,62668,.14216E-3,.3E-6,0
INTELSAT 20 (IS-20),2012-043A,2026-07-17T01:37:21.954144,1.00270598,.000126,0.0110,61.8578,119.1700,206.7087,0,U,38740,999,5104,0,-.34E-6,0
HYLAS 2,2012-043B,2026-07-17T02:39:46.327104,1.00272414,.0002351,2.5028,80.7045,56.2794,125.3113,0,U,38741,999,5107,0,-.269E-5,0
EXPRESS-MD2,2012-044B,2026-07-16T17:59:14.983008,12.45416783,.1559496,49.8372,328.3059,252.2640,90.2461,0,U,38745,999,56449,.36648E-3,.20584E-3,.4297E-5
INTELSAT 21 (IS-21),2012-045A,2026-07-17T02:43:54.721056,1.00272417,.0001615,0.0481,246.2144,241.0925,150.6068,0,U,38749,999,5082,0,-.295E-5,0
SPOT 6,2012-047A,2026-07-17T04:14:55.586400,14.58538941,.0001093,98.2108,265.1325,88.2618,271.8706,0,U,38755,999,73742,-.49834E-6,-.48E-6,0
SMDC ONE 1.2,2012-048B,2026-07-17T02:45:07.017120,15.21364221,.0088469,64.6569,80.1707,167.4612,192.8746,0,U,38759,999,12070,.19815E-3,.4733E-4,0
CINEMA,2012-048G,2026-07-16T15:27:22.825152,15.49887262,.0036451,64.6441,344.7483,169.4468,190.7446,0,U,38764,999,12180,.45466E-3,.2605E-3,0
METOP-B,2012-049A,2026-07-17T04:13:36.765408,14.21446731,.0001148,98.6489,249.0746,244.1857,115.9202,0,U,38771,999,71752,.37383E-4,.38E-6,0
BEIDOU-2 M6,2012-050B,2026-07-15T19:50:00.704256,1.86230913,.00128901,56.5693,61.9476,1.6971,358.3817,0,U,38775,999,9384,0,-.44E-6,0
ASTRA 2F,2012-051A,2026-07-17T03:08:32.911008,1.00270382,.0002997,0.0840,255.4790,287.5774,187.1826,0,U,38778,999,4143,0,.14E-5,0
GSAT-10,2012-051B,2026-07-17T03:24:08.915904,1.00272744,.0007444,0.0859,264.4590,190.3180,334.2173,0,U,38779,999,5039,0,-.175E-5,0
VRSS-1,2012-052A,2026-07-17T05:39:17.576640,14.80067421,.0018771,97.6172,173.0322,134.5746,225.7002,0,U,38782,999,74405,.13685E-3,.991E-5,0
NAVSTAR 67 (USA 239),2012-053A,2026-07-16T17:33:28.314144,2.00567949,.0182122,53.5898,142.3889,66.2502,295.6136,0,U,38833,999,10003,0,.15E-6,0
GSAT0103 (GALILEO-FM3),2012-055A,2026-07-16T05:14:38.805216,1.70473424,.0003594,55.8227,100.7486,314.9576,45.0469,0,U,38857,999,8550,0,-.26E-6,0
SJ-9A,2012-056A,2026-07-17T04:57:17.946144,14.85530798,.0026154,97.6730,169.0767,155.2963,204.9511,0,U,38860,999,70404,.59261E-4,.462E-5,0
SJ-9B,2012-056B,2026-07-16T21:38:18.078432,14.91415535,.0016795,97.6000,180.9316,113.6298,246.6686,0,U,38861,999,74415,.11118E-3,.1059E-4,0
INTELSAT 23 (IS-23),2012-057A,2026-07-17T04:30:38.459232,1.00263147,.0000706,0.0179,316.6424,295.6341,57.3680,0,U,38867,999,5025,0,-.295E-5,0
BEIDOU-2 G6,2012-059A,2026-07-17T03:40:38.689248,1.00273361,.0008719,4.4954,73.1954,327.0832,33.8532,0,U,38953,999,5021,0,-.188E-5,0
LUCH-5B,2012-061A,2026-07-17T00:10:58.039680,1.00270300,.0003868,10.5467,49.5821,147.5239,84.1816,0,U,38977,999,4990,0,-.151E-5,0
YAMAL 300K,2012-061B,2026-07-16T19:19:25.742784,1.00272636,.0000163,0.0158,65.0881,190.5986,151.7571,0,U,38978,999,4992,0,0,0
STAR ONE C3,2012-062A,2026-07-17T02:11:53.386368,1.00272973,.0002209,0.0189,44.1627,79.2581,129.4676,0,U,38991,999,5006,0,-.259E-5,0
EUTELSAT 21B,2012-062B,2026-07-17T03:06:40.591008,1.00282083,.0003742,0.0700,338.8649,146.8945,237.4206,0,U,38992,999,5012,0,.121E-5,0
ECHOSTAR 16,2012-065A,2026-07-17T02:42:54.818208,1.00269011,.0002082,0.0184,52.3300,67.4399,154.3878,0,U,39008,999,4994,0,-.292E-5,0
YAOGAN-16 01A,2012-066A,2026-07-17T01:21:48.104064,13.45518213,.0437896,63.3505,212.6532,27.3538,334.9823,0,U,39011,999,67016,.22676E-4,-.67E-6,0
